KUIPER-00112            
1 65150U 25171U   25362.60480669  .00000172  00000+0  51891-4 0  9997
2 65150  51.9002 109.9283 0008904 287.5320  72.4669 14.79933781 22398
KUIPER-00114            
1 65151U 25171V   25362.75198591  .00002003  00000+0  29177-3 0  9990
2 65151  51.8983 129.2896 0005855 226.1569 133.8910 14.79926614 22137
KUIPER-00115            
1 65152U 25171W   25362.62514821  .00006717  00000+0  90863-3 0  9991
2 65152  51.8994 122.3344 0009307 249.8034 110.1928 14.79945830 22225
KUIPER-00116            
1 65153U 25171X   25362.65352875  .00005739  00000+0  78043-3 0  9993
2 65153  51.8989 127.2504 0009604 212.5941 147.4429 14.79958421 22157
KUIPER-00118            
1 65154U 25171Y   25362.65085865  .00006629  00000+0  89684-3 0  9998
2 65154  51.8998 129.7185 0001101 193.1406 166.9528 14.79973635 22121
KUIPER-00119            
1 65155U 25171Z   25362.59671853  .00002549  00000+0  36303-3 0  9997
2 65155  51.9005 117.5394 0007829 244.3406 115.6748 14.79972372 22280
KUIPER-00120            
1 65762U 25217A   25362.58252510 -.00132599  00000+0 -18585-1 0  9997
2 65762  51.9004   6.3196 0003296  61.8307 298.2988 14.77895267 14228
KUIPER-00132            
1 65763U 25217B   25362.36636878  .00032007  00000+0  85342-3 0  9995
2 65763  51.8636 349.1405 0008089  69.9627 290.2230 15.37837673 14449
