<?xml version="1.0" encoding="UTF-8"?>
<ndm xmlns:xsi="http://www.w3.org/2001/XMLSchema-instance" xsi:noNamespaceSchemaLocation="https://sanaregistry.org/r/ndmxml_unqualified/ndmxml-2.0.0-master-2.0.xsd">
<omm id="CCSDS_OMM_VERS" version="2.0">
<header><CREATION_DATE/><ORIGINATOR/></header><body><segment><metadata><OBJECT_NAME>KUIPER-00112</OBJECT_NAME><OBJECT_ID>2025-171U</OBJECT_ID><CENTER_NAME>EARTH</CENTER_NAME><REF_FRAME>TEME</REF_FRAME><TIME_SYSTEM>UTC</TIME_SYSTEM><MEAN_ELEMENT_THEORY>SGP4</MEAN_ELEMENT_THEORY></metadata><data><meanElements><EPOCH>2025-12-28T14:30:55.298016</EPOCH><MEAN_MOTION>14.79933781</MEAN_MOTION><ECCENTRICITY>.0008904</ECCENTRICITY><INCLINATION>51.9002</INCLINATION><RA_OF_ASC_NODE>109.9283</RA_OF_ASC_NODE><ARG_OF_PERICENTER>287.5320</ARG_OF_PERICENTER><MEAN_ANOMALY>72.4669</MEAN_ANOMALY></meanElements><tleParameters><EPHEMERIS_TYPE>0</EPHEMERIS_TYPE><CLASSIFICATION_TYPE>U</CLASSIFICATION_TYPE><NORAD_CAT_ID>65150</NORAD_CAT_ID><ELEMENT_SET_NO>999</ELEMENT_SET_NO><REV_AT_EPOCH>2239</REV_AT_EPOCH><BSTAR>.51891E-4</BSTAR><MEAN_MOTION_DOT>.172E-5</MEAN_MOTION_DOT><MEAN_MOTION_DDOT>0</MEAN_MOTION_DDOT></tleParameters></data></segment></body></omm>
<omm id="CCSDS_OMM_VERS" version="2.0">
<header><CREATION_DATE/><ORIGINATOR/></header><body><segment><metadata><OBJECT_NAME>KUIPER-00114</OBJECT_NAME><OBJECT_ID>2025-171V</OBJECT_ID><CENTER_NAME>EARTH</CENTER_NAME><REF_FRAME>TEME</REF_FRAME><TIME_SYSTEM>UTC</TIME_SYSTEM><MEAN_ELEMENT_THEORY>SGP4</MEAN_ELEMENT_THEORY></metadata><data><meanElements><EPOCH>2025-12-28T18:02:51.581760</EPOCH><MEAN_MOTION>14.79926614</MEAN_MOTION><ECCENTRICITY>.0005856</ECCENTRICITY><INCLINATION>51.8983</INCLINATION><RA_OF_ASC_NODE>129.2896</RA_OF_ASC_NODE><ARG_OF_PERICENTER>226.1569</ARG_OF_PERICENTER><MEAN_ANOMALY>133.8910</MEAN_ANOMALY></meanElements><tleParameters><EPHEMERIS_TYPE>0</EPHEMERIS_TYPE><CLASSIFICATION_TYPE>U</CLASSIFICATION_TYPE><NORAD_CAT_ID>65151</NORAD_CAT_ID><ELEMENT_SET_NO>999</ELEMENT_SET_NO><REV_AT_EPOCH>2213</REV_AT_EPOCH><BSTAR>.29177E-3</BSTAR><MEAN_MOTION_DOT>.2003E-4</MEAN_MOTION_DOT><MEAN_MOTION_DDOT>0</MEAN_MOTION_DDOT></tleParameters></data></segment></body></omm>
<omm id="CCSDS_OMM_VERS" version="2.0">
<header><CREATION_DATE/><ORIGINATOR/></header><body><segment><metadata><OBJECT_NAME>KUIPER-00115</OBJECT_NAME><OBJECT_ID>2025-171W</OBJECT_ID><CENTER_NAME>EARTH</CENTER_NAME><REF_FRAME>TEME</REF_FRAME><TIME_SYSTEM>UTC</TIME_SYSTEM><MEAN_ELEMENT_THEORY>SGP4</MEAN_ELEMENT_THEORY></metadata><data><meanElements><EPOCH>2025-12-28T15:00:12.805344</EPOCH><MEAN_MOTION>14.79945830</MEAN_MOTION><ECCENTRICITY>.0009307</ECCENTRICITY><INCLINATION>51.8994</INCLINATION><RA_OF_ASC_NODE>122.3344</RA_OF_ASC_NODE><ARG_OF_PERICENTER>249.8034</ARG_OF_PERICENTER><MEAN_ANOMALY>110.1928</MEAN_ANOMALY></meanElements><tleParameters><EPHEMERIS_TYPE>0</EPHEMERIS_TYPE><CLASSIFICATION_TYPE>U</CLASSIFICATION_TYPE><NORAD_CAT_ID>65152</NORAD_CAT_ID><ELEMENT_SET_NO>999</ELEMENT_SET_NO><REV_AT_EPOCH>2222</REV_AT_EPOCH><BSTAR>.90863E-3</BSTAR><MEAN_MOTION_DOT>.6717E-4</MEAN_MOTION_DOT><MEAN_MOTION_DDOT>0</MEAN_MOTION_DDOT></tleParameters></data></segment></body></omm>
<omm id="CCSDS_OMM_VERS" version="2.0">
<header><CREATION_DATE/><ORIGINATOR/></header><body><segment><metadata><OBJECT_NAME>KUIPER-00116</OBJECT_NAME><OBJECT_ID>2025-171X</OBJECT_ID><CENTER_NAME>EARTH</CENTER_NAME><REF_FRAME>TEME</REF_FRAME><TIME_SYSTEM>UTC</TIME_SYSTEM><MEAN_ELEMENT_THEORY>SGP4</MEAN_ELEMENT_THEORY></metadata><data><meanElements><EPOCH>2025-12-28T15:41:04.884000</EPOCH><MEAN_MOTION>14.79958421</MEAN_MOTION><ECCENTRICITY>.0009604</ECCENTRICITY><INCLINATION>51.8989</INCLINATION><RA_OF_ASC_NODE>127.2504</RA_OF_ASC_NODE><ARG_OF_PERICENTER>212.5941</ARG_OF_PERICENTER><MEAN_ANOMALY>147.4429</MEAN_ANOMALY></meanElements><tleParameters><EPHEMERIS_TYPE>0</EPHEMERIS_TYPE><CLASSIFICATION_TYPE>U</CLASSIFICATION_TYPE><NORAD_CAT_ID>65153</NORAD_CAT_ID><ELEMENT_SET_NO>999</ELEMENT_SET_NO><REV_AT_EPOCH>2215</REV_AT_EPOCH><BSTAR>.78043E-3</BSTAR><MEAN_MOTION_DOT>.5739E-4</MEAN_MOTION_DOT><MEAN_MOTION_DDOT>0</MEAN_MOTION_DDOT></tleParameters></data></segment></body></omm>
<omm id="CCSDS_OMM_VERS" version="2.0">
<header><CREATION_DATE/><ORIGINATOR/></header><body><segment><metadata><OBJECT_NAME>KUIPER-00118</OBJECT_NAME><OBJECT_ID>2025-171Y</OBJECT_ID><CENTER_NAME>EARTH</CENTER_NAME><REF_FRAME>TEME</REF_FRAME><TIME_SYSTEM>UTC</TIME_SYSTEM><MEAN_ELEMENT_THEORY>SGP4</MEAN_ELEMENT_THEORY></metadata><data><meanElements><EPOCH>2025-12-28T15:37:14.187360</EPOCH><MEAN_MOTION>14.79973635</MEAN_MOTION><ECCENTRICITY>.0001101</ECCENTRICITY><INCLINATION>51.8998</INCLINATION><RA_OF_ASC_NODE>129.7185</RA_OF_ASC_NODE><ARG_OF_PERICENTER>193.1406</ARG_OF_PERICENTER><MEAN_ANOMALY>166.9528</MEAN_ANOMALY></meanElements><tleParameters><EPHEMERIS_TYPE>0</EPHEMERIS_TYPE><CLASSIFICATION_TYPE>U</CLASSIFICATION_TYPE><NORAD_CAT_ID>65154</NORAD_CAT_ID><ELEMENT_SET_NO>999</ELEMENT_SET_NO><REV_AT_EPOCH>2212</REV_AT_EPOCH><BSTAR>.89684E-3</BSTAR><MEAN_MOTION_DOT>.6629E-4</MEAN_MOTION_DOT><MEAN_MOTION_DDOT>0</MEAN_MOTION_DDOT></tleParameters></data></segment></body></omm>
<omm id="CCSDS_OMM_VERS" version="2.0">
<header><CREATION_DATE/><ORIGINATOR/></header><body><segment><metadata><OBJECT_NAME>KUIPER-00119</OBJECT_NAME><OBJECT_ID>2025-171Z</OBJECT_ID><CENTER_NAME>EARTH</CENTER_NAME><REF_FRAME>TEME</REF_FRAME><TIME_SYSTEM>UTC</TIME_SYSTEM><MEAN_ELEMENT_THEORY>SGP4</MEAN_ELEMENT_THEORY></metadata><data><meanElements><EPOCH>2025-12-28T14:19:16.480992</EPOCH><MEAN_MOTION>14.79972372</MEAN_MOTION><ECCENTRICITY>.0007829</ECCENTRICITY><INCLINATION>51.9005</INCLINATION><RA_OF_ASC_NODE>117.5394</RA_OF_ASC_NODE><ARG_OF_PERICENTER>244.3406</ARG_OF_PERICENTER><MEAN_ANOMALY>115.6748</MEAN_ANOMALY></meanElements><tleParameters><EPHEMERIS_TYPE>0</EPHEMERIS_TYPE><CLASSIFICATION_TYPE>U</CLASSIFICATION_TYPE><NORAD_CAT_ID>65155</NORAD_CAT_ID><ELEMENT_SET_NO>999</ELEMENT_SET_NO><REV_AT_EPOCH>2228</REV_AT_EPOCH><BSTAR>.36303E-3</BSTAR><MEAN_MOTION_DOT>.2549E-4</MEAN_MOTION_DOT><MEAN_MOTION_DDOT>0</MEAN_MOTION_DDOT></tleParameters></data></segment></body></omm>
<omm id="CCSDS_OMM_VERS" version="2.0">
<header><CREATION_DATE/><ORIGINATOR/></header><body><segment><metadata><OBJECT_NAME>KUIPER-00120</OBJECT_NAME><OBJECT_ID>2025-217A</OBJECT_ID><CENTER_NAME>EARTH</CENTER_NAME><REF_FRAME>TEME</REF_FRAME><TIME_SYSTEM>UTC</TIME_SYSTEM><MEAN_ELEMENT_THEORY>SGP4</MEAN_ELEMENT_THEORY></metadata><data><meanElements><EPOCH>2025-12-28T13:58:50.168640</EPOCH><MEAN_MOTION>14.77895267</MEAN_MOTION><ECCENTRICITY>.0003296</ECCENTRICITY><INCLINATION>51.9004</INCLINATION><RA_OF_ASC_NODE>6.3196</RA_OF_ASC_NODE><ARG_OF_PERICENTER>61.8307</ARG_OF_PERICENTER><MEAN_ANOMALY>298.2988</MEAN_ANOMALY></meanElements><tleParameters><EPHEMERIS_TYPE>0</EPHEMERIS_TYPE><CLASSIFICATION_TYPE>U</CLASSIFICATION_TYPE><NORAD_CAT_ID>65762</NORAD_CAT_ID><ELEMENT_SET_NO>999</ELEMENT_SET_NO><REV_AT_EPOCH>1422</REV_AT_EPOCH><BSTAR>-.18585E-1</BSTAR><MEAN_MOTION_DOT>-.132599E-2</MEAN_MOTION_DOT><MEAN_MOTION_DDOT>0</MEAN_MOTION_DDOT></tleParameters></data></segment></body></omm>
<omm id="CCSDS_OMM_VERS" version="2.0">
<header><CREATION_DATE/><ORIGINATOR/></header><body><segment><metadata><OBJECT_NAME>KUIPER-00132</OBJECT_NAME><OBJECT_ID>2025-217B</OBJECT_ID><CENTER_NAME>EARTH</CENTER_NAME><REF_FRAME>TEME</REF_FRAME><TIME_SYSTEM>UTC</TIME_SYSTEM><MEAN_ELEMENT_THEORY>SGP4</MEAN_ELEMENT_THEORY></metadata><data><meanElements><EPOCH>2025-12-28T08:47:34.262592</EPOCH><MEAN_MOTION>15.37837673</MEAN_MOTION><ECCENTRICITY>.00080897</ECCENTRICITY><INCLINATION>51.8636</INCLINATION><RA_OF_ASC_NODE>349.1405</RA_OF_ASC_NODE><ARG_OF_PERICENTER>69.9627</ARG_OF_PERICENTER><MEAN_ANOMALY>290.2230</MEAN_ANOMALY></meanElements><tleParameters><EPHEMERIS_TYPE>0</EPHEMERIS_TYPE><CLASSIFICATION_TYPE>U</CLASSIFICATION_TYPE><NORAD_CAT_ID>65763</NORAD_CAT_ID><ELEMENT_SET_NO>999</ELEMENT_SET_NO><REV_AT_EPOCH>1444</REV_AT_EPOCH><BSTAR>.85342202E-3</BSTAR><MEAN_MOTION_DOT>.32007E-3</MEAN_MOTION_DOT><MEAN_MOTION_DDOT>0</MEAN_MOTION_DDOT></tleParameters></data></segment></body></omm>

</ndm>
